[{"OBJECT_NAME":"CELESTIS-02 & TAURUS R/B","OBJECT_ID":"1998-007D","EPOCH":"2026-03-03T18:33:25.045920","MEAN_MOTION":14.22451313,"ECCENTRICITY":0.0063168,"INCLINATION":108.0088,"RA_OF_ASC_NODE":119.5133,"ARG_OF_PERICENTER":311.9375,"MEAN_ANOMALY":152.6314,"EPHEMERIS_TYPE":0,"CLASSIFICATION_TYPE":"U","NORAD_CAT_ID":25160,"ELEMENT_SET_NO":999,"REV_AT_EPOCH":45552,"BSTAR":6.9849e-5,"MEAN_MOTION_DOT":2.9e-7,"MEAN_MOTION_DDOT":0}]
