CELESTIS-02 & TAURUS R/B
1 25160U 98007D   26062.77320655  .00000029  00000+0  69849-4 0  9999
2 25160 108.0088 119.5133 0063168 311.9375 152.6314 14.22451313455526
